IRIDIUM 150             
1 43257U 18030J   24012.80888478  .00000477  00000+0  16320-3 0  9995
2 43257  86.3979 300.9068 0001889  72.9316 287.2087 14.34219455303137
IRIDIUM 143             
1 43258U 18030K   24012.72007983  .00000449  00000+0  15339-3 0  9999
2 43258  86.3982 301.0013 0001749  81.6482 278.4912 14.34220909303067
IRIDIUM 161             
1 43478U 18047C   24012.77429088  .00000695  00000+0  20047-3 0  9995
2 43478  86.4487  98.9619 0002195  94.2363 265.9089 14.43298907297285
IRIDIUM 152             
1 43479U 18047D   24012.76256890  .00000496  00000+0  17022-3 0  9992
2 43479  86.3957  98.8254 0001857 100.1302 260.0103 14.34217193295442
IRIDIUM 147             
1 43480U 18047E   24012.76891130  .00000513  00000+0  17601-3 0  9999
2 43480  86.3960  98.8123 0002211  91.8952 268.2497 14.34216595295435
IRIDIUM 110             
1 43481U 18047F   24012.77525866  .00000505  00000+0  17323-3 0  9993
2 43481  86.3965  98.8788 0002399  87.7311 272.4159 14.34218601295429
IRIDIUM 162             
1 43482U 18047G   24012.49072378  .00000698  00000+0  20149-3 0  9991
2 43482  86.4487  98.9824 0002187  93.7278 266.4173 14.43296938297235
IRIDIUM 160             
1 43569U 18061A   24012.58155647 -.00000208  00000+0 -81325-4 0  9997
2 43569  86.3944  67.3097 0002339 105.8723 254.2730 14.34217136286290
